ONEWEB-0560             
1 55145U 23004F   25065.52475459  .00000029  00000+0  40607-4 0  9999
2 55145  87.9054  68.4785 0002180  83.4473 276.6907 13.18685584108075
ONEWEB-0565             
1 55146U 23004G   25065.74605066  .00000087  00000+0  18865-3 0  9997
2 55146  87.9049  68.4995 0001822  71.2960 288.8370 13.18684994108096
ONEWEB-0567             
1 55147U 23004H   25065.73973157  .00000054  00000+0  10295-3 0  9999
2 55147  87.9047  68.4560 0002064  76.2934 283.8428 13.18684844108091
ONEWEB-0569             
1 55148U 23004J   25065.65815226  .00000212  00000+0  54575-3 0  9998
2 55148  87.8905  53.1291 0002637  67.5113 292.6295 13.13375693108807
ONEWEB-0570             
1 55149U 23004K   25065.49944909  .00000059  00000+0  11702-3 0  9996
2 55149  87.9052  68.5061 0001306  78.5860 281.5419 13.18684881108059
ONEWEB-0571             
1 55150U 23004L   25065.72076699  .00000074  00000+0  15535-3 0  9991
2 55150  87.9053  68.4703 0002129  57.5922 302.5416 13.18684241108099
ONEWEB-0573             
1 55152U 23004N   25065.71443979  .00000083  00000+0  17807-3 0  9995
2 55152  87.9048  68.4800 0001727  59.4060 300.7242 13.18683949108080
